[Satellite]
VERSION=1.1
NAME=FLOCK 3P-88
NICKNAME=FLOCK 3P-88
TLE1=1 41982U 17008AL  17186.23606259  .00001588  00000-0  71341-4 0  9998
TLE2=2 41982  97.4970 247.5703 0010106 126.8449 233.3715 15.22594604 20220
